SHENZHOU-21 (SZ-21)     
1 66263U 25246A   25317.95045496  .00052703  00000+0  60551-3 0  9998
2 66263  41.4653 191.4272 0003866  22.2669 337.8338 15.61169901258137
