CCSDS_OMM_VERS = 2.0
CREATION_DATE  = 
ORIGINATOR     = 

OBJECT_NAME    = SHENZHOU-21 (SZ-21)
OBJECT_ID      = 2025-246A
CENTER_NAME    = EARTH
REF_FRAME      = TEME
TIME_SYSTEM    = UTC
MEAN_ELEMENT_THEORY = SGP/SGP4

EPOCH          = 2025-11-13T22:48:39.308544
MEAN_MOTION    = 15.61169901
ECCENTRICITY   = .00038666
INCLINATION    = 41.4653
RA_OF_ASC_NODE = 191.4272
ARG_OF_PERICENTER = 22.2669
MEAN_ANOMALY   = 337.8338

EPHEMERIS_TYPE = 0
CLASSIFICATION_TYPE = U
NORAD_CAT_ID   = 66263
ELEMENT_SET_NO = 999
REV_AT_EPOCH   = 25813
BSTAR          = .6055134E-3
MEAN_MOTION_DOT = .52703E-3
MEAN_MOTION_DDOT = 0

